{
"type": "FeatureCollection",
"name": "hotspot_today",
"crs": { "type": "name", "properties": { "name": "urn:ogc:def:crs:OGC:1.3:CRS84" } },
"features": [
{ "type": "Feature", "properties": { "longitude": 101.07788, "latitude": 14.63097, "province": "สระบุรี", "amphoe": "แก่งคอย", "lu_hp_name": "อื่น ๆ", "lu_code": 3, "frp": 1.15, "confidence": "nominal", "instrument": "VIIRS", "acq_date": "2026-06-08T00:00:00", "acq_time": "1834", "dist_zone_km": 179.45338641128905, "near_zone": false }, "geometry": { "type": "Point", "coordinates": [ 101.07788, 14.63097 ] } },
{ "type": "Feature", "properties": { "longitude": 99.52346, "latitude": 14.71135, "province": "สุพรรณบุรี", "amphoe": "ด่านช้าง", "lu_hp_name": "เกษตรอื่น ๆ", "lu_code": 3, "frp": 5.73, "confidence": "nominal", "instrument": "VIIRS", "acq_date": "2026-06-09T00:00:00", "acq_time": "0722", "dist_zone_km": 55.262470910272135, "near_zone": true }, "geometry": { "type": "Point", "coordinates": [ 99.52346, 14.71135 ] } },
{ "type": "Feature", "properties": { "longitude": 99.52611, "latitude": 14.71274, "province": "สุพรรณบุรี", "amphoe": "ด่านช้าง", "lu_hp_name": "เกษตรอื่น ๆ", "lu_code": 3, "frp": 6.52, "confidence": "nominal", "instrument": "VIIRS", "acq_date": "2026-06-09T00:00:00", "acq_time": "0722", "dist_zone_km": 55.350222097924899, "near_zone": true }, "geometry": { "type": "Point", "coordinates": [ 99.52611, 14.71274 ] } },
{ "type": "Feature", "properties": { "longitude": 99.52377, "latitude": 14.71279, "province": "สุพรรณบุรี", "amphoe": "ด่านช้าง", "lu_hp_name": "เกษตรอื่น ๆ", "lu_code": 3, "frp": 8.77, "confidence": "nominal", "instrument": "VIIRS", "acq_date": "2026-06-09T00:00:00", "acq_time": "0648", "dist_zone_km": 55.169031331072304, "near_zone": true }, "geometry": { "type": "Point", "coordinates": [ 99.52377, 14.71279 ] } },
{ "type": "Feature", "properties": { "longitude": 99.52386, "latitude": 14.71462, "province": "สุพรรณบุรี", "amphoe": "ด่านช้าง", "lu_hp_name": "เกษตรอื่น ๆ", "lu_code": 3, "frp": 8.82, "confidence": "nominal", "instrument": "VIIRS", "acq_date": "2026-06-09T00:00:00", "acq_time": "0648", "dist_zone_km": 55.027276392427495, "near_zone": true }, "geometry": { "type": "Point", "coordinates": [ 99.52386, 14.71462 ] } },
{ "type": "Feature", "properties": { "longitude": 100.28331, "latitude": 16.18103, "province": "พิจิตร", "amphoe": "โพทะเล", "lu_hp_name": "เกษตรอื่น ๆ", "lu_code": 5, "frp": 5.92, "confidence": "nominal", "instrument": "VIIRS", "acq_date": "2026-06-09T00:00:00", "acq_time": "0650", "dist_zone_km": 0.0, "near_zone": true }, "geometry": { "type": "Point", "coordinates": [ 100.28331, 16.18103 ] } },
{ "type": "Feature", "properties": { "longitude": 99.82905, "latitude": 16.29527, "province": "กำแพงเพชร", "amphoe": "ทรายทองวัฒนา", "lu_hp_name": "นาข้าว", "lu_code": 5, "frp": 5.02, "confidence": "nominal", "instrument": "VIIRS", "acq_date": "2026-06-09T00:00:00", "acq_time": "0650", "dist_zone_km": 0.0, "near_zone": true }, "geometry": { "type": "Point", "coordinates": [ 99.82905, 16.29527 ] } },
{ "type": "Feature", "properties": { "longitude": 100.68303, "latitude": 16.52889, "province": "พิษณุโลก", "amphoe": "เนินมะปราง", "lu_hp_name": "เกษตรอื่น ๆ", "lu_code": 3, "frp": 2.65, "confidence": "nominal", "instrument": "VIIRS", "acq_date": "2026-06-09T00:00:00", "acq_time": "0650", "dist_zone_km": 0.0, "near_zone": true }, "geometry": { "type": "Point", "coordinates": [ 100.68303, 16.52889 ] } },
{ "type": "Feature", "properties": { "longitude": 100.16546, "latitude": 17.08685, "province": "พิษณุโลก", "amphoe": "พรหมพิราม", "lu_hp_name": "นาข้าว", "lu_code": 5, "frp": 3.99, "confidence": "nominal", "instrument": "VIIRS", "acq_date": "2026-06-09T00:00:00", "acq_time": "0650", "dist_zone_km": 0.0, "near_zone": true }, "geometry": { "type": "Point", "coordinates": [ 100.16546, 17.08685 ] } },
{ "type": "Feature", "properties": { "longitude": 99.76037, "latitude": 19.77839, "province": "เชียงราย", "amphoe": "แม่ลาว", "lu_hp_name": "นาข้าว", "lu_code": 5, "frp": 4.2, "confidence": "nominal", "instrument": "VIIRS", "acq_date": "2026-06-09T00:00:00", "acq_time": "0650", "dist_zone_km": 0.0, "near_zone": true }, "geometry": { "type": "Point", "coordinates": [ 99.76037, 19.77839 ] } },
{ "type": "Feature", "properties": { "longitude": 101.07648, "latitude": 14.63413, "province": "สระบุรี", "amphoe": "แก่งคอย", "lu_hp_name": "อื่น ๆ", "lu_code": 3, "frp": 1.26, "confidence": "nominal", "instrument": "VIIRS", "acq_date": "2026-06-08T00:00:00", "acq_time": "1851", "dist_zone_km": 179.090867160729, "near_zone": false }, "geometry": { "type": "Point", "coordinates": [ 101.07648, 14.63413 ] } },
{ "type": "Feature", "properties": { "longitude": 100.80307, "latitude": 14.6737, "province": "สระบุรี", "amphoe": "พระพุทธบาท", "lu_hp_name": "อื่น ๆ", "lu_code": 6, "frp": 2.31, "confidence": "nominal", "instrument": "VIIRS", "acq_date": "2026-06-08T00:00:00", "acq_time": "1851", "dist_zone_km": 155.18201306054769, "near_zone": false }, "geometry": { "type": "Point", "coordinates": [ 100.80307, 14.6737 ] } },
{ "type": "Feature", "properties": { "longitude": 99.83013, "latitude": 16.29653, "province": "กำแพงเพชร", "amphoe": "ทรายทองวัฒนา", "lu_hp_name": "นาข้าว", "lu_code": 5, "frp": 2.5, "confidence": "nominal", "instrument": "VIIRS", "acq_date": "2026-06-09T00:00:00", "acq_time": "0601", "dist_zone_km": 0.0, "near_zone": true }, "geometry": { "type": "Point", "coordinates": [ 99.83013, 16.29653 ] } },
{ "type": "Feature", "properties": { "longitude": 99.76366, "latitude": 19.77719, "province": "เชียงราย", "amphoe": "แม่ลาว", "lu_hp_name": "พื้นที่ป่า", "lu_code": 6, "frp": 5.41, "confidence": "nominal", "instrument": "VIIRS", "acq_date": "2026-06-09T00:00:00", "acq_time": "0601", "dist_zone_km": 0.0, "near_zone": true }, "geometry": { "type": "Point", "coordinates": [ 99.76366, 19.77719 ] } },
{ "type": "Feature", "properties": { "longitude": 99.46784, "latitude": 20.05484, "province": "เชียงใหม่", "amphoe": "แม่อาย", "lu_hp_name": "เกษตรอื่น ๆ", "lu_code": 3, "frp": 2.01, "confidence": "nominal", "instrument": "VIIRS", "acq_date": "2026-06-09T00:00:00", "acq_time": "0601", "dist_zone_km": 0.0, "near_zone": true }, "geometry": { "type": "Point", "coordinates": [ 99.46784, 20.05484 ] } }
]
}
